{"type": "FeatureCollection", "features": [ {"type": "Feature", "properties": {"norad_id": 40664, "name": "SKY MEXICO-1", "group": "intelsat", "lat": 0.008387178112389683, "lon": 127.5596412909432, "alt_km": 35794.45305464894, "timestamp": "2025-12-02T08:59:32.387538+00:00", "meta": {"OBJECT_NAME": "SKY MEXICO-1", "OBJECT_ID": "2015-026B", "EPOCH": "2025-12-01T18:34:24.427776", "MEAN_MOTION": 1.00271024, "ECCENTRICITY": 0.0002656, "INCLINATION": 0.0174, "RA_OF_ASC_NODE": 325.3482, "ARG_OF_PERICENTER": 298.5137, "MEAN_ANOMALY": 6.8739, "EPHEMERIS_TYPE": 0, "CLASSIFICATION_TYPE": "U", "NORAD_CAT_ID": 40664, "ELEMENT_SET_NO": 999, "REV_AT_EPOCH": 3847, "BSTAR": 0, "MEAN_MOTION_DOT": -2.13e-06, "MEAN_MOTION_DDOT": 0}, "tle": {"line1": "1 40664U 15026B   25335.77389384 -.00000213  00000+0  00000+0 0  9996", "line2": "2 40664   0.0174 325.3482 0002656 298.5137   6.8739  1.00271024 38477"}}, "geometry": {"type": "Point", "coordinates": [127.5596412909432, 0.008387178112389683]}}, {"type": "Feature", "properties": {"norad_id": 40874, "name": "INTELSAT 34 (IS-34)", "group": "intelsat", "lat": -0.01887822759438141, "lon": 150.8362065197296, "alt_km": 35782.94114264619, "timestamp": "2025-12-02T08:59:32.387549+00:00", "meta": {"OBJECT_NAME": "INTELSAT 34 (IS-34)", "OBJECT_ID": "2015-039A", "EPOCH": "2025-12-01T18:41:08.783232", "MEAN_MOTION": 1.00270951, "ECCENTRICITY": 8.49e-05, "INCLINATION": 0.0157, "RA_OF_ASC_NODE": 294.6924, "ARG_OF_PERICENTER": 230.7347, "MEAN_ANOMALY": 130.2562, "EPHEMERIS_TYPE": 0, "CLASSIFICATION_TYPE": "U", "NORAD_CAT_ID": 40874, "ELEMENT_SET_NO": 999, "REV_AT_EPOCH": 3764, "BSTAR": 0, "MEAN_MOTION_DOT": -2.64e-06, "MEAN_MOTION_DDOT": 0}, "tle": {"line1": "1 40874U 15039A   25335.77857388 -.00000264  00000+0  00000+0 0  9993", "line2": "2 40874   0.0157 294.6924 0000849 230.7347 130.2562  1.00270951 37645"}}, "geometry": {"type": "Point", "coordinates": [150.8362065197296, -0.01887822759438141]}}, {"type": "Feature", "properties": {"norad_id": 41581, "name": "INTELSAT 31 (IS-31)", "group": "intelsat", "lat": -0.00232206197231741, "lon": 111.26165211295313, "alt_km": 35789.31415637393, "timestamp": "2025-12-02T08:59:32.387561+00:00", "meta": {"OBJECT_NAME": "INTELSAT 31 (IS-31)", "OBJECT_ID": "2016-035A", "EPOCH": "2025-12-02T03:03:32.131008", "MEAN_MOTION": 1.00269746, "ECCENTRICITY": 0.0001912, "INCLINATION": 0.0151, "RA_OF_ASC_NODE": 270.5944, "ARG_OF_PERICENTER": 309.5464, "MEAN_ANOMALY": 161.9273, "EPHEMERIS_TYPE": 0, "CLASSIFICATION_TYPE": "U", "NORAD_CAT_ID": 41581, "ELEMENT_SET_NO": 999, "REV_AT_EPOCH": 3470, "BSTAR": 0, "MEAN_MOTION_DOT": -1.3e-06, "MEAN_MOTION_DDOT": 0}, "tle": {"line1": "1 41581U 16035A   25336.12745522 -.00000130  00000+0  00000+0 0  9994", "line2": "2 41581   0.0151 270.5944 0001912 309.5464 161.9273  1.00269746 34701"}}, "geometry": {"type": "Point", "coordinates": [111.26165211295313, -0.00232206197231741]}}, {"type": "Feature", "properties": {"norad_id": 41747, "name": "INTELSAT 36 (IS-36)", "group": "intelsat", "lat": -0.02494016135049371, "lon": -85.14951065241469, "alt_km": 35778.38440588698, "timestamp": "2025-12-02T08:59:32.387572+00:00", "meta": {"OBJECT_NAME": "INTELSAT 36 (IS-36)", "OBJECT_ID": "2016-053A", "EPOCH": "2025-12-01T21:50:38.751936", "MEAN_MOTION": 1.00278088, "ECCENTRICITY": 0.0001727, "INCLINATION": 0.0108, "RA_OF_ASC_NODE": 342.6383, "ARG_OF_PERICENTER": 327.7333, "MEAN_ANOMALY": 156.8269, "EPHEMERIS_TYPE": 0, "CLASSIFICATION_TYPE": "U", "NORAD_CAT_ID": 41747, "ELEMENT_SET_NO": 999, "REV_AT_EPOCH": 3397, "BSTAR": 0, "MEAN_MOTION_DOT": -5e-08, "MEAN_MOTION_DDOT": 0}, "tle": {"line1": "1 41747U 16053A   25335.91017074 -.00000005  00000+0  00000+0 0  9999", "line2": "2 41747   0.0108 342.6383 0001727 327.7333 156.8269  1.00278088 33971"}}, "geometry": {"type": "Point", "coordinates": [-85.14951065241469, -0.02494016135049371]}}, {"type": "Feature", "properties": {"norad_id": 41945, "name": "INTELSAT 32E (IS-32E)", "group": "intelsat", "lat": 0.0019134118373514489, "lon": 163.17239950329602, "alt_km": 35786.91359537279, "timestamp": "2025-12-02T08:59:32.387584+00:00", "meta": {"OBJECT_NAME": "INTELSAT 32E (IS-32E)", "OBJECT_ID": "2017-007B", "EPOCH": "2025-12-02T03:18:20.977920", "MEAN_MOTION": 1.00270118, "ECCENTRICITY": 8.4e-06, "INCLINATION": 0.0227, "RA_OF_ASC_NODE": 55.6817, "ARG_OF_PERICENTER": 304.3916, "MEAN_ANOMALY": 77.5977, "EPHEMERIS_TYPE": 0, "CLASSIFICATION_TYPE": "U", "NORAD_CAT_ID": 41945, "ELEMENT_SET_NO": 999, "REV_AT_EPOCH": 3224, "BSTAR": 0, "MEAN_MOTION_DOT": -2.48e-06, "MEAN_MOTION_DDOT": 0}, "tle": {"line1": "1 41945U 17007B   25336.13774280 -.00000248  00000+0  00000+0 0  9992", "line2": "2 41945   0.0227  55.6817 0000084 304.3916  77.5977  1.00270118 32249"}}, "geometry": {"type": "Point", "coordinates": [163.17239950329602, 0.0019134118373514489]}}, {"type": "Feature", "properties": {"norad_id": 42818, "name": "INTELSAT 35E (IS-35E)", "group": "intelsat", "lat": -0.02645131431162942, "lon": 171.83674395250867, "alt_km": 35783.65044436142, "timestamp": "2025-12-02T08:59:32.387595+00:00", "meta": {"OBJECT_NAME": "INTELSAT 35E (IS-35E)", "OBJECT_ID": "2017-041A", "EPOCH": "2025-12-02T03:20:50.740224", "MEAN_MOTION": 1.00273188, "ECCENTRICITY": 0.0002347, "INCLINATION": 0.0173, "RA_OF_ASC_NODE": 312.6291, "ARG_OF_PERICENTER": 297.2688, "MEAN_ANOMALY": 197.0874, "EPHEMERIS_TYPE": 0, "CLASSIFICATION_TYPE": "U", "NORAD_CAT_ID": 42818, "ELEMENT_SET_NO": 999, "REV_AT_EPOCH": 3084, "BSTAR": 0, "MEAN_MOTION_DOT": -2.17e-06, "MEAN_MOTION_DDOT": 0}, "tle": {"line1": "1 42818U 17041A   25336.13947616 -.00000217  00000+0  00000+0 0  9991", "line2": "2 42818   0.0173 312.6291 0002347 297.2688 197.0874  1.00273188 30849"}}, "geometry": {"type": "Point", "coordinates": [171.83674395250867, -0.02645131431162942]}}, {"type": "Feature", "properties": {"norad_id": 42950, "name": "INTELSAT 37E (IS-37E)", "group": "intelsat", "lat": -0.03283205986389471, "lon": -171.68641182768016, "alt_km": 35778.355014769964, "timestamp": "2025-12-02T08:59:32.387606+00:00", "meta": {"OBJECT_NAME": "INTELSAT 37E (IS-37E)", "OBJECT_ID": "2017-059A", "EPOCH": "2025-12-02T02:44:38.740128", "MEAN_MOTION": 1.00271022, "ECCENTRICITY": 0.000339, "INCLINATION": 0.0128, "RA_OF_ASC_NODE": 290.8013, "ARG_OF_PERICENTER": 313.8771, "MEAN_ANOMALY": 209.7169, "EPHEMERIS_TYPE": 0, "CLASSIFICATION_TYPE": "U", "NORAD_CAT_ID": 42950, "ELEMENT_SET_NO": 999, "REV_AT_EPOCH": 3009, "BSTAR": 0, "MEAN_MOTION_DOT": -1.19e-06, "MEAN_MOTION_DDOT": 0}, "tle": {"line1": "1 42950U 17059A   25336.11433727 -.00000119  00000+0  00000+0 0  9999", "line2": "2 42950   0.0128 290.8013 0003390 313.8771 209.7169  1.00271022 30092"}}, "geometry": {"type": "Point", "coordinates": [-171.68641182768016, -0.03283205986389471]}}, {"type": "Feature", "properties": {"norad_id": 43632, "name": "AZERSPACE 2 (IS-38)", "group": "intelsat", "lat": -0.022010906423048895, "lon": -108.55120262594592, "alt_km": 35779.17999817666, "timestamp": "2025-12-02T08:59:32.387618+00:00", "meta": {"OBJECT_NAME": "AZERSPACE 2 (IS-38)", "OBJECT_ID": "2018-074A", "EPOCH": "2025-12-02T03:43:33.563712", "MEAN_MOTION": 1.00270954, "ECCENTRICITY": 0.000168, "INCLINATION": 0.003, "RA_OF_ASC_NODE": 345.5003, "ARG_OF_PERICENTER": 267.9964, "MEAN_ANOMALY": 278.7706, "EPHEMERIS_TYPE": 0, "CLASSIFICATION_TYPE": "U", "NORAD_CAT_ID": 43632, "ELEMENT_SET_NO": 999, "REV_AT_EPOCH": 2647, "BSTAR": 0, "MEAN_MOTION_DOT": 1.57e-06, "MEAN_MOTION_DDOT": 0}, "tle": {"line1": "1 43632U 18074A   25336.15524958  .00000157  00000+0  00000+0 0  9997", "line2": "2 43632   0.0030 345.5003 0001680 267.9964 278.7706  1.00270954 26475"}}, "geometry": {"type": "Point", "coordinates": [-108.55120262594592, -0.022010906423048895]}}, {"type": "Feature", "properties": {"norad_id": 43633, "name": "HORIZONS-3E", "group": "intelsat", "lat": 0.022382809330699343, "lon": 15.368269853605476, "alt_km": 35786.97916289542, "timestamp": "2025-12-02T08:59:32.387629+00:00", "meta": {"OBJECT_NAME": "HORIZONS-3E", "OBJECT_ID": "2018-074B", "EPOCH": "2025-12-01T18:02:30.823296", "MEAN_MOTION": 1.00268041, "ECCENTRICITY": 7.08e-05, "INCLINATION": 0.0287, "RA_OF_ASC_NODE": 212.6289, "ARG_OF_PERICENTER": 75.528, "MEAN_ANOMALY": 222.3695, "EPHEMERIS_TYPE": 0, "CLASSIFICATION_TYPE": "U", "NORAD_CAT_ID": 43633, "ELEMENT_SET_NO": 999, "REV_AT_EPOCH": 2636, "BSTAR": 0, "MEAN_MOTION_DOT": -9e-08, "MEAN_MOTION_DDOT": 0}, "tle": {"line1": "1 43633U 18074B   25335.75174564 -.00000009  00000+0  00000+0 0  9994", "line2": "2 43633   0.0287 212.6289 0000708  75.5280 222.3695  1.00268041 26368"}}, "geometry": {"type": "Point", "coordinates": [15.368269853605476, 0.022382809330699343]}}, {"type": "Feature", "properties": {"norad_id": 44333, "name": "AT&T T-16", "group": "intelsat", "lat": 0.016122673532723186, "lon": 105.48015710821878, "alt_km": 35786.04832813613, "timestamp": "2025-12-02T08:59:32.387641+00:00", "meta": {"OBJECT_NAME": "AT&T T-16", "OBJECT_ID": "2019-034A", "EPOCH": "2025-12-02T03:01:54.785856", "MEAN_MOTION": 1.00267153, "ECCENTRICITY": 4.91e-05, "INCLINATION": 0.0251, "RA_OF_ASC_NODE": 59.9841, "ARG_OF_PERICENTER": 94.9911, "MEAN_ANOMALY": 220.8904, "EPHEMERIS_TYPE": 0, "CLASSIFICATION_TYPE": "U", "NORAD_CAT_ID": 44333, "ELEMENT_SET_NO": 999, "REV_AT_EPOCH": 2365, "BSTAR": 0, "MEAN_MOTION_DOT": -9.4e-07, "MEAN_MOTION_DDOT": 0}, "tle": {"line1": "1 44333U 19034A   25336.12632854 -.00000094  00000+0  00000+0 0  9996", "line2": "2 44333   0.0251  59.9841 0000491  94.9911 220.8904  1.00267153 23656"}}, "geometry": {"type": "Point", "coordinates": [105.48015710821878, 0.016122673532723186]}}]}